COSMOS 2251 DEB         
1 38069U 93036BSB 17345.25840446  .00002221  00000-0  80898-3 0  9993
2 38069  74.1862  82.3031 0110173 343.3783  45.2946 14.30377130190646
